[{"OBJECT_NAME":"OBJECT AL","OBJECT_ID":"2023-085AL","EPOCH":"2026-03-09T22:26:04.970400","MEAN_MOTION":15.31857284,"ECCENTRICITY":0.000802,"INCLINATION":97.4839,"RA_OF_ASC_NODE":180.0127,"ARG_OF_PERICENTER":78.7242,"MEAN_ANOMALY":281.49,"EPHEMERIS_TYPE":0,"CLASSIFICATION_TYPE":"U","NORAD_CAT_ID":57038,"ELEMENT_SET_NO":999,"REV_AT_EPOCH":15154,"BSTAR":0.0006591637,"MEAN_MOTION_DOT":0.00020246,"MEAN_MOTION_DDOT":0},{"OBJECT_NAME":"STARLINK-32504","OBJECT_ID":"2024-213S","EPOCH":"2026-03-09T12:59:39.167520","MEAN_MOTION":15.30210574,"ECCENTRICITY":0.00033513,"INCLINATION":53.1596,"RA_OF_ASC_NODE":168.7092,"ARG_OF_PERICENTER":170.7831,"MEAN_ANOMALY":189.3232,"EPHEMERIS_TYPE":0,"CLASSIFICATION_TYPE":"U","NORAD_CAT_ID":62024,"ELEMENT_SET_NO":999,"REV_AT_EPOCH":7313,"BSTAR":0.00086230332,"MEAN_MOTION_DOT":0.00025277,"MEAN_MOTION_DDOT":0}]
